{
  "updated": "2026-07-23T15:51:48.188Z",
  "capsules": {
    "66664": {
      "name": "SOYUZ-MS 28",
      "kind": "crew",
      "family": "soyuz",
      "phase": "docked",
      "stationKey": "iss",
      "since": "2026-07-03T10:34:14.509Z",
      "distanceKm": 0,
      "altitudeKm": 427,
      "inclinationDeg": 51.631,
      "l1": "1 66664U 25275A   26204.18538858  .00009623  00000+0  18183-3 0  9992",
      "l2": "2 66664  51.6313 121.9488 0006905 328.2241  31.8329 15.49110422576759"
    },
    "67796": {
      "name": "CREW DRAGON 12",
      "kind": "crew",
      "family": "dragon",
      "phase": "docked",
      "stationKey": "iss",
      "since": "2026-07-03T10:34:14.509Z",
      "distanceKm": 0,
      "altitudeKm": 427,
      "inclinationDeg": 51.631,
      "l1": "1 67796U 26031A   26204.18538858  .00009623  00000+0  18183-3 0  9990",
      "l2": "2 67796  51.6313 121.9488 0006905 328.2241  31.8329 15.49110422577038"
    },
    "68319": {
      "name": "PROGRESS-MS 33",
      "kind": "cargo",
      "family": "progress",
      "phase": "docked",
      "stationKey": "iss",
      "since": "2026-07-10T20:18:26.588Z",
      "distanceKm": 0,
      "altitudeKm": 427,
      "inclinationDeg": 51.631,
      "l1": "1 68319U 26058A   26204.18538858  .00009623  00000+0  18183-3 0  9991",
      "l2": "2 68319  51.6313 121.9488 0006905 328.2241  31.8329 15.49110422576792"
    },
    "68689": {
      "name": "CYGNUS NG-24",
      "kind": "cargo",
      "family": "cygnus",
      "phase": "docked",
      "stationKey": "iss",
      "since": "2026-07-10T20:18:26.588Z",
      "distanceKm": 0,
      "altitudeKm": 427,
      "inclinationDeg": 51.631,
      "l1": "1 68689U 26079A   26204.18538858  .00009623  00000+0  18183-3 0  9994",
      "l2": "2 68689  51.6313 121.9488 0006905 328.2241  31.8329 15.49110422577153"
    },
    "68837": {
      "name": "PROGRESS-MS 34",
      "kind": "cargo",
      "family": "progress",
      "phase": "docked",
      "stationKey": "iss",
      "since": "2026-07-10T20:18:26.588Z",
      "distanceKm": 0,
      "altitudeKm": 427,
      "inclinationDeg": 51.631,
      "l1": "1 68837U 26093A   26204.18538858  .00009623  00000+0  18183-3 0  9995",
      "l2": "2 68837  51.6313 121.9488 0006905 328.2241  31.8329 15.49110422577192"
    },
    "69049": {
      "name": "TIANZHOU-10",
      "kind": "cargo",
      "family": "tianzhou",
      "phase": "docked",
      "stationKey": "css",
      "since": "2026-07-10T20:18:26.588Z",
      "distanceKm": 0,
      "altitudeKm": 402,
      "inclinationDeg": 41.469,
      "l1": "1 69049U 26102A   26204.03437983  .00011304  00000+0  14912-3 0  9998",
      "l2": "2 69049  41.4690 104.3124 0001739 306.7625  53.3054 15.58280026298453"
    },
    "69180": {
      "name": "SHENZHOU-23 (SZ-23)",
      "kind": "crew",
      "family": "shenzhou",
      "phase": "docked",
      "stationKey": "css",
      "since": "2026-07-03T10:34:14.509Z",
      "distanceKm": 0,
      "altitudeKm": 402,
      "inclinationDeg": 41.469,
      "l1": "1 69180U 26113A   26204.03437983  .00011304  00000+0  14912-3 0  9996",
      "l2": "2 69180  41.4690 104.3124 0001739 306.7625  53.3054 15.58280026298189"
    }
  },
  "events": [
    {
      "id": "68319",
      "name": "PROGRESS-MS 33",
      "kind": "cargo",
      "family": "progress",
      "stationKey": "iss",
      "event": "launched",
      "at": "2026-07-10T20:18:26.588Z"
    },
    {
      "id": "68689",
      "name": "CYGNUS NG-24",
      "kind": "cargo",
      "family": "cygnus",
      "stationKey": "iss",
      "event": "launched",
      "at": "2026-07-10T20:18:26.588Z"
    },
    {
      "id": "68837",
      "name": "PROGRESS-MS 34",
      "kind": "cargo",
      "family": "progress",
      "stationKey": "iss",
      "event": "launched",
      "at": "2026-07-10T20:18:26.588Z"
    },
    {
      "id": "69049",
      "name": "TIANZHOU-10",
      "kind": "cargo",
      "family": "tianzhou",
      "stationKey": "css",
      "event": "launched",
      "at": "2026-07-10T20:18:26.588Z"
    }
  ]
}
